     2.100          NAVIGATION                              RINEX VERSION / TYPE
fic2rin                                 04/14/2009 01:26:21 PGM / RUN BY / DATE
                                                            END OF HEADER
31 09  4 13  4  0  0.0 -.575250014663D-04 -.102318153949D-11  .000000000000D+00
     .108000000000D+03 -.898437500000D+02  .417517391275D-08 -.109876788338D+01
    -.474974513054D-05  .714781682473D-02  .102724879980D-04  .515369297791D+04
     .100800000000D+06 -.135973095894D-06 -.278683850404D+01 -.465661287308D-07
     .972476591119D+00  .191468750000D+03 -.115400970498D+01 -.787211361942D-08
     .178578867098D-09  .100000000000D+01  .152700000000D+04  .000000000000D+00
     .485000000000D+01  .000000000000D+00 -.130385160446D-07  .108000000000D+03
     .936060000000D+05  .400000000000D+01
32 09  4 13  4  0  0.0  .275351107121D-03 -.488853402203D-11  .000000000000D+00
     .840000000000D+02  .963125000000D+02  .443161316591D-08 -.205451678161D+00
     .499002635479D-05  .133788207313D-01  .420771539211D-05  .515359658241D+04
     .100800000000D+06 -.258907675743D-06  .148935991247D+01 -.173225998878D-06
     .964342266280D+00  .302656250000D+03 -.117722283994D+01 -.838713507213D-08
     .275368613065D-09  .100000000000D+01  .152700000000D+04  .000000000000D+00
     .240000000000D+01  .000000000000D+00 -.325962901115D-08  .840000000000D+02
     .936060000000D+05  .400000000000D+01
27 09  4 13  3 59 44.0  .403900630772D-04  .329691829393D-11  .000000000000D+00
     .100000000000D+03 -.905937500000D+02  .400980988182D-08  .183315750488D+01
    -.506266951561D-05  .208851958159D-01  .888481736183D-05  .515511824989D+04
     .100784000000D+06  .225380063057D-06 -.284286571222D+01 -.441446900368D-06
     .974092907862D+00  .216156250000D+03 -.162132104365D+01 -.753424240287D-08
     .996470078407D-10  .100000000000D+01  .152700000000D+04  .000000000000D+00
     .240000000000D+01  .000000000000D+00 -.419095158577D-08  .100000000000D+03
     .936960000000D+05  .400000000000D+01
18 09  4 13  3 59 44.0 -.660917721689D-04  .341060513165D-11  .000000000000D+00
     .200000000000D+02  .110531250000D+03  .470269588616D-08  .305498606880D+01
     .568106770515D-05  .101478946162D-01  .394135713577D-05  .515359326935D+04
     .100784000000D+06  .465661287308D-07  .143451731976D+01 -.912696123123D-07
     .942749079020D+00  .296156250000D+03 -.242813016006D+01 -.815748264904D-08
     .317870383435D-09  .100000000000D+01  .152700000000D+04  .000000000000D+00
     .240000000000D+01  .000000000000D+00 -.107102096081D-07  .200000000000D+02
     .944760000000D+05  .400000000000D+01
 3 09  4 13  3 59 44.0  .378814991564D-03  .534328137292D-11  .000000000000D+00
     .700000000000D+01 -.202187500000D+02  .574059626173D-08  .432621241257D+00
    -.778585672379D-06  .117796979612D-01  .565126538277D-05  .515373898697D+04
     .100784000000D+06 -.106170773506D-06 -.802643401594D+00  .147148966789D-06
     .926168811700D+00  .250531250000D+03  .896582841314D+00 -.870143387822D-08
    -.386801826134D-09  .100000000000D+01  .152700000000D+04  .000000000000D+00
     .240000000000D+01  .000000000000D+00 -.419095158577D-08  .700000000000D+01
     .953760000000D+05  .400000000000D+01
28 09  4 13  3 59 44.0 -.239652581513D-04 -.113686837722D-12  .000000000000D+00
     .500000000000D+01  .218750000000D+00  .453411743562D-08  .229268186813D+01
    -.245869159698D-06  .148514930625D-01  .716559588909D-05  .515364050484D+04
     .100784000000D+06  .540167093277D-07 -.170769886316D+01 -.307336449623D-06
     .965847873772D+00  .242968750000D+03 -.203227539730D+01 -.771746432051D-08
     .366086677551D-09  .100000000000D+01  .152700000000D+04  .000000000000D+00
     .240000000000D+01  .000000000000D+00 -.107102096081D-07  .500000000000D+01
     .957060000000D+05  .400000000000D+01
 7 09  4 13  3 59 44.0  .204555690289D-04 -.454747350886D-12  .000000000000D+00
     .200000000000D+01 -.782500000000D+02  .424910556373D-08 -.970151865074D+00
    -.415556132793D-05  .241564575117D-02  .921636819839D-05  .515367729759D+04
     .100784000000D+06  .298023223877D-07 -.278450792925D+01  .186264514923D-08
     .967085247920D+00  .204718750000D+03  .289913356896D+01 -.783389774186D-08
     .197151069276D-09  .100000000000D+01  .152700000000D+04  .000000000000D+00
     .240000000000D+01  .000000000000D+00 -.107102096081D-07  .200000000000D+01
     .100386000000D+06  .400000000000D+01
 3 09  4 13  5 59 44.0  .378853175789D-03  .534328137292D-11  .000000000000D+00
     .230000000000D+02 -.216562500000D+02  .579524139507D-08  .148275011797D+01
    -.111758708954D-05  .117798328865D-01  .607594847679D-05  .515373952103D+04
     .107984000000D+06 -.277534127235D-06 -.802706336329D+00  .596046447754D-07
     .926166203317D+00  .249093750000D+03  .896604153105D+00 -.862393064990D-08
    -.324656380384D-09  .100000000000D+01  .152700000000D+04  .000000000000D+00
     .240000000000D+01  .000000000000D+00 -.419095158577D-08  .230000000000D+02
     .100806000000D+06  .400000000000D+01
 7 09  4 13  5 59 44.0  .204523093998D-04 -.454747350886D-12  .000000000000D+00
     .300000000000D+01 -.937500000000D+02  .414517266308D-08  .804791319360D-01
    -.479258596897D-05  .241748092230D-02  .924058258533D-05  .515368132973D+04
     .107984000000D+06  .204890966415D-07 -.278456433937D+01  .000000000000D+00
     .967086709375D+00  .204656250000D+03  .289867747207D+01 -.782961184905D-08
     .202508435289D-09  .100000000000D+01  .152700000000D+04  .000000000000D+00
     .240000000000D+01  .000000000000D+00 -.107102096081D-07  .300000000000D+01
     .100806000000D+06  .400000000000D+01
18 09  4 13  5 59 44.0 -.660675577819D-04  .341060513165D-11  .000000000000D+00
     .210000000000D+02  .966875000000D+02  .473662587091D-08 -.217800381792D+01
     .496208667755D-05  .101496977732D-01  .374764204025D-05  .515358992958D+04
     .107984000000D+06 -.149011611938D-07  .143445904734D+01 -.124797224998D-06
     .942751269009D+00  .300062500000D+03 -.242809273569D+01 -.812891003030D-08
     .257867884090D-09  .100000000000D+01  .152700000000D+04  .000000000000D+00
     .240000000000D+01  .000000000000D+00 -.107102096081D-07  .210000000000D+02
     .100806000000D+06  .400000000000D+01
28 09  4 13  5 59 44.0 -.239657238126D-04 -.113686837722D-12  .000000000000D+00
     .600000000000D+01 -.428125000000D+01  .461554939902D-08 -.294028189086D+01
    -.270083546638D-06  .148520302027D-01  .716745853424D-05  .515363940430D+04
     .107984000000D+06  .273808836937D-06 -.170775472323D+01 -.219792127609D-06
     .965850586022D+00  .241437500000D+03 -.203229469172D+01 -.774175104643D-08
     .455733268834D-09  .100000000000D+01  .152700000000D+04  .000000000000D+00
     .240000000000D+01  .000000000000D+00 -.107102096081D-07  .600000000000D+01
     .100806000000D+06  .400000000000D+01
 1 09  4 13  6  0  0.0 -.872961245477D-04  .121644916362D-10  .000000000000D+00
     .400000000000D+01  .734375000000D+01  .483877298289D-08 -.190330903790D+01
     .376254320145D-06  .322254200000D-02  .753067433834D-05  .515377043724D+04
     .108000000000D+06  .353902578354D-07 -.174470680652D+01 -.242143869400D-07
     .960056802837D+00  .235625000000D+03  .898539375749D+00 -.799533303771D-08
     .482162941165D-09  .100000000000D+01  .152700000000D+04  .000000000000D+00
     .240000000000D+01  .630000000000D+02 -.116415321827D-07  .400000000000D+01
     .100806000000D+06  .400000000000D+01
 2 09  4 13  6  0  0.0  .153595115989D-03 -.113686837722D-12  .000000000000D+00
     .480000000000D+02  .509062500000D+02  .464519349095D-08  .184236088344D+01
     .281073153019D-05  .903538591228D-02  .104121863842D-04  .515364596176D+04
     .108000000000D+06 -.298023223877D-07  .344107619864D+00  .143423676491D-06
     .941988048555D+00  .168125000000D+03  .277780422857D+01 -.790175771135D-08
    -.521093134192D-09  .100000000000D+01  .152700000000D+04  .000000000000D+00
     .240000000000D+01  .000000000000D+00 -.172294676304D-07  .480000000000D+02
     .100806000000D+06  .400000000000D+01
 4 09  4 13  6  0  0.0 -.496935099363D-04 -.148929757415D-10  .000000000000D+00
     .100000000000D+03  .507812500000D+02  .461912097636D-08 -.158490050140D+01
     .257417559624D-05  .860355317127D-02  .104196369648D-04  .515372384834D+04
     .108000000000D+06  .149011611938D-07  .362528428307D+00 -.163912773132D-06
     .941203323205D+00  .168937500000D+03  .482289855525D+00 -.787711382769D-08
    -.326442169055D-09  .100000000000D+01  .152700000000D+04  .000000000000D+00
     .240000000000D+01  .000000000000D+00 -.605359673500D-08  .100000000000D+03
     .100806000000D+06  .400000000000D+01
 5 09  4 13  6  0  0.0 -.332854688168D-04 -.122781784739D-10  .000000000000D+00
     .970000000000D+02  .575000000000D+01  .508699760815D-08 -.192787232044D+01
     .365078449249D-06  .949673226569D-02  .764615833759D-05  .515358172417D+04
     .108000000000D+06  .165775418282D-06 -.183364979876D+01  .409781932831D-07
     .945380619949D+00  .223781250000D+03  .129930771023D+01 -.805390690612D-08
     .510735559900D-09  .100000000000D+01  .152700000000D+04  .000000000000D+00
     .685000000000D+01  .630000000000D+02 -.419095158577D-08  .970000000000D+02
     .100806000000D+06  .400000000000D+01
 6 09  4 13  6  0  0.0  .780611298978D-04  .172803993337D-10  .000000000000D+00
     .740000000000D+02 -.193125000000D+02  .548522848178D-08 -.231026579820D+01
    -.910833477974D-06  .590143282898D-02  .582076609135D-05  .515370015717D+04
     .108000000000D+06  .409781932831D-07 -.735471838554D+00  .912696123123D-07
     .933715202929D+00  .251156250000D+03 -.140508638651D+01 -.827141596625D-08
    -.292512184307D-09  .100000000000D+01  .152700000000D+04  .000000000000D+00
     .240000000000D+01  .000000000000D+00 -.465661287308D-08  .740000000000D+02
     .100806000000D+06  .400000000000D+01
